{"type": "FeatureCollection", "features": [ {"type": "Feature", "properties": {"norad_id": 66869, "name": "STARLINK-36092", "group": "last-30-days", "lat": 4.116150856373799, "lon": -143.55513013230401, "alt_km": 414.07373740724233, "timestamp": "2025-12-26T04:40:04.512229+00:00", "meta": {"OBJECT_NAME": "STARLINK-36092", "OBJECT_ID": "2025-281X", "EPOCH": "2025-12-25T22:00:01.999584", "MEAN_MOTION": 15.50758805, "ECCENTRICITY": 0.0001464, "INCLINATION": 43.0004, "RA_OF_ASC_NODE": 42.4995, "ARG_OF_PERICENTER": 242.8136, "MEAN_ANOMALY": 178.4151, "EPHEMERIS_TYPE": 0, "CLASSIFICATION_TYPE": "U", "NORAD_CAT_ID": 66869, "ELEMENT_SET_NO": 999, "REV_AT_EPOCH": 353, "BSTAR": -0.0074301092, "MEAN_MOTION_DOT": -0.00416503, "MEAN_MOTION_DDOT": 0}, "tle": {"line1": "1 66869U 25281X   25359.91668981 -.00416503  00000+0 -74301-2 0  9992", "line2": "2 66869  43.0004  42.4995 0001464 242.8136 178.4151 15.50758805  3534"}}, "geometry": {"type": "Point", "coordinates": [-143.55513013230401, 4.116150856373799]}}, {"type": "Feature", "properties": {"norad_id": 66870, "name": "STARLINK-36114", "group": "last-30-days", "lat": 2.8127207479822673, "lon": -142.1533969123285, "alt_km": 414.2023765241638, "timestamp": "2025-12-26T04:40:04.512241+00:00", "meta": {"OBJECT_NAME": "STARLINK-36114", "OBJECT_ID": "2025-281Y", "EPOCH": "2025-12-25T22:00:01.999584", "MEAN_MOTION": 15.50757479, "ECCENTRICITY": 0.00013624, "INCLINATION": 43.0004, "RA_OF_ASC_NODE": 42.4943, "ARG_OF_PERICENTER": 240.5523, "MEAN_ANOMALY": 182.5896, "EPHEMERIS_TYPE": 0, "CLASSIFICATION_TYPE": "U", "NORAD_CAT_ID": 66870, "ELEMENT_SET_NO": 999, "REV_AT_EPOCH": 340, "BSTAR": -0.0073004347, "MEAN_MOTION_DOT": -0.0040957, "MEAN_MOTION_DDOT": 0}, "tle": {"line1": "1 66870U 25281Y   25359.91668981 -.00409570  00000+0 -73004-2 0  9999", "line2": "2 66870  43.0004  42.4943 0001362 240.5523 182.5896 15.50757479  3405"}}, "geometry": {"type": "Point", "coordinates": [-142.1533969123285, 2.8127207479822673]}}, {"type": "Feature", "properties": {"norad_id": 66871, "name": "STARLINK-36095", "group": "last-30-days", "lat": 1.5043173796956808, "lon": -140.75098403503236, "alt_km": 414.30343466946306, "timestamp": "2025-12-26T04:40:04.512253+00:00", "meta": {"OBJECT_NAME": "STARLINK-36095", "OBJECT_ID": "2025-281Z", "EPOCH": "2025-12-25T22:00:01.999584", "MEAN_MOTION": 15.50758444, "ECCENTRICITY": 0.00012632, "INCLINATION": 43.0003, "RA_OF_ASC_NODE": 42.4894, "ARG_OF_PERICENTER": 234.6246, "MEAN_ANOMALY": 190.4365, "EPHEMERIS_TYPE": 0, "CLASSIFICATION_TYPE": "U", "NORAD_CAT_ID": 66871, "ELEMENT_SET_NO": 999, "REV_AT_EPOCH": 353, "BSTAR": -0.0074070766, "MEAN_MOTION_DOT": -0.00415258, "MEAN_MOTION_DDOT": 0}, "tle": {"line1": "1 66871U 25281Z   25359.91668981 -.00415258  00000+0 -74071-2 0  9995", "line2": "2 66871  43.0003  42.4894 0001263 234.6246 190.4365 15.50758444  3532"}}, "geometry": {"type": "Point", "coordinates": [-140.75098403503236, 1.5043173796956808]}}, {"type": "Feature", "properties": {"norad_id": 66872, "name": "STARLINK-36082", "group": "last-30-days", "lat": 0.20092305970611354, "lon": -139.3570807129518, "alt_km": 414.45902653452686, "timestamp": "2025-12-26T04:40:04.512263+00:00", "meta": {"OBJECT_NAME": "STARLINK-36082", "OBJECT_ID": "2025-281AA", "EPOCH": "2025-12-25T22:00:01.999584", "MEAN_MOTION": 15.50756175, "ECCENTRICITY": 0.00015534, "INCLINATION": 43.0006, "RA_OF_ASC_NODE": 42.484, "ARG_OF_PERICENTER": 241.4058, "MEAN_ANOMALY": 185.5726, "EPHEMERIS_TYPE": 0, "CLASSIFICATION_TYPE": "U", "NORAD_CAT_ID": 66872, "ELEMENT_SET_NO": 999, "REV_AT_EPOCH": 340, "BSTAR": -0.0073761555, "MEAN_MOTION_DOT": -0.004136, "MEAN_MOTION_DDOT": 0}, "tle": {"line1": "1 66872U 25281AA  25359.91668981 -.00413600  00000+0 -73762-2 0  9991", "line2": "2 66872  43.0006  42.4840 0001553 241.4058 185.5726 15.50756175  3407"}}, "geometry": {"type": "Point", "coordinates": [-139.3570807129518, 0.20092305970611354]}}, {"type": "Feature", "properties": {"norad_id": 66873, "name": "STARLINK-36128", "group": "last-30-days", "lat": -3.7160788773527162, "lon": -135.15995939730004, "alt_km": 414.81034559332784, "timestamp": "2025-12-26T04:40:04.512273+00:00", "meta": {"OBJECT_NAME": "STARLINK-36128", "OBJECT_ID": "2025-281AB", "EPOCH": "2025-12-25T22:00:01.999584", "MEAN_MOTION": 15.5075555, "ECCENTRICITY": 0.00014871, "INCLINATION": 43.0007, "RA_OF_ASC_NODE": 42.4689, "ARG_OF_PERICENTER": 236.4282, "MEAN_ANOMALY": 196.2977, "EPHEMERIS_TYPE": 0, "CLASSIFICATION_TYPE": "U", "NORAD_CAT_ID": 66873, "ELEMENT_SET_NO": 999, "REV_AT_EPOCH": 354, "BSTAR": -0.0073513243, "MEAN_MOTION_DOT": -0.00412264, "MEAN_MOTION_DDOT": 0}, "tle": {"line1": "1 66873U 25281AB  25359.91668981 -.00412264  00000+0 -73513-2 0  9991", "line2": "2 66873  43.0007  42.4689 0001487 236.4282 196.2977 15.50755550  3547"}}, "geometry": {"type": "Point", "coordinates": [-135.15995939730004, -3.7160788773527162]}}, {"type": "Feature", "properties": {"norad_id": 66874, "name": "STARLINK-36129", "group": "last-30-days", "lat": -1.1032412654569252, "lon": -137.96233417618075, "alt_km": 414.6559806016794, "timestamp": "2025-12-26T04:40:04.512283+00:00", "meta": {"OBJECT_NAME": "STARLINK-36129", "OBJECT_ID": "2025-281AC", "EPOCH": "2025-12-25T22:00:01.999584", "MEAN_MOTION": 15.5075444, "ECCENTRICITY": 0.00014363, "INCLINATION": 43.0008, "RA_OF_ASC_NODE": 42.479, "ARG_OF_PERICENTER": 243.0197, "MEAN_ANOMALY": 185.8706, "EPHEMERIS_TYPE": 0, "CLASSIFICATION_TYPE": "U", "NORAD_CAT_ID": 66874, "ELEMENT_SET_NO": 999, "REV_AT_EPOCH": 353, "BSTAR": -0.0072833336, "MEAN_MOTION_DOT": -0.00408621, "MEAN_MOTION_DDOT": 0}, "tle": {"line1": "1 66874U 25281AC  25359.91668981 -.00408621  00000+0 -72833-2 0  9998", "line2": "2 66874  43.0008  42.4790 0001436 243.0197 185.8706 15.50754440  3535"}}, "geometry": {"type": "Point", "coordinates": [-137.96233417618075, -1.1032412654569252]}}, {"type": "Feature", "properties": {"norad_id": 66875, "name": "STARLINK-36053", "group": "last-30-days", "lat": -5.016130439765974, "lon": -133.7572837395337, "alt_km": 414.9609497411748, "timestamp": "2025-12-26T04:40:04.512295+00:00", "meta": {"OBJECT_NAME": "STARLINK-36053", "OBJECT_ID": "2025-281AD", "EPOCH": "2025-12-25T22:00:01.999584", "MEAN_MOTION": 15.50746931, "ECCENTRICITY": 0.00015739, "INCLINATION": 43.0007, "RA_OF_ASC_NODE": 42.4635, "ARG_OF_PERICENTER": 239.8109, "MEAN_ANOMALY": 194.8345, "EPHEMERIS_TYPE": 0, "CLASSIFICATION_TYPE": "U", "NORAD_CAT_ID": 66875, "ELEMENT_SET_NO": 999, "REV_AT_EPOCH": 354, "BSTAR": -0.0071225802, "MEAN_MOTION_DOT": -0.00399949, "MEAN_MOTION_DDOT": 0}, "tle": {"line1": "1 66875U 25281AD  25359.91668981 -.00399949  00000+0 -71226-2 0  9996", "line2": "2 66875  43.0007  42.4635 0001573 239.8109 194.8345 15.50746931  3547"}}, "geometry": {"type": "Point", "coordinates": [-133.7572837395337, -5.016130439765974]}}, {"type": "Feature", "properties": {"norad_id": 66876, "name": "STARLINK-35702", "group": "last-30-days", "lat": -2.41076742526138, "lon": -136.5618133281336, "alt_km": 414.7815542718854, "timestamp": "2025-12-26T04:40:04.512306+00:00", "meta": {"OBJECT_NAME": "STARLINK-35702", "OBJECT_ID": "2025-281AE", "EPOCH": "2025-12-25T22:00:01.999584", "MEAN_MOTION": 15.50749694, "ECCENTRICITY": 0.00014064, "INCLINATION": 43.0005, "RA_OF_ASC_NODE": 42.4742, "ARG_OF_PERICENTER": 241.2248, "MEAN_ANOMALY": 189.587, "EPHEMERIS_TYPE": 0, "CLASSIFICATION_TYPE": "U", "NORAD_CAT_ID": 66876, "ELEMENT_SET_NO": 999, "REV_AT_EPOCH": 353, "BSTAR": -0.0072032993, "MEAN_MOTION_DOT": -0.00404285, "MEAN_MOTION_DDOT": 0}, "tle": {"line1": "1 66876U 25281AE  25359.91668981 -.00404285  00000+0 -72033-2 0  9994", "line2": "2 66876  43.0005  42.4742 0001406 241.2248 189.5870 15.50749694  3533"}}, "geometry": {"type": "Point", "coordinates": [-136.5618133281336, -2.41076742526138]}}, {"type": "Feature", "properties": {"norad_id": 66877, "name": "ZQ-3 R/B", "group": "last-30-days", "lat": 46.79472447406771, "lon": 48.98015889509717, "alt_km": 1065.6789336404709, "timestamp": "2025-12-26T04:40:04.512316+00:00", "meta": {"OBJECT_NAME": "ZQ-3 R/B", "OBJECT_ID": "2025-282A", "EPOCH": "2025-12-25T05:45:52.511040", "MEAN_MOTION": 14.85076412, "ECCENTRICITY": 0.0673336, "INCLINATION": 56.9492, "RA_OF_ASC_NODE": 8.893, "ARG_OF_PERICENTER": 242.0471, "MEAN_ANOMALY": 111.0851, "EPHEMERIS_TYPE": 0, "CLASSIFICATION_TYPE": "U", "NORAD_CAT_ID": 66877, "ELEMENT_SET_NO": 999, "REV_AT_EPOCH": 323, "BSTAR": 0.00016487, "MEAN_MOTION_DOT": 0.00979538, "MEAN_MOTION_DDOT": 7.936e-06}, "tle": {"line1": "1 66877U 25282A   25359.24019110  .00979538  79360-5  16487-3 0  9995", "line2": "2 66877  56.9492   8.8930 0673336 242.0471 111.0851 14.85076412  3230"}}, "geometry": {"type": "Point", "coordinates": [48.98015889509717, 46.79472447406771]}}, {"type": "Feature", "properties": {"norad_id": 66878, "name": "STARLINK-35866", "group": "last-30-days", "lat": -17.68543633643186, "lon": -6.956028164463515, "alt_km": 397.55226078027135, "timestamp": "2025-12-26T04:40:04.512341+00:00", "meta": {"OBJECT_NAME": "STARLINK-35866", "OBJECT_ID": "2025-283A", "EPOCH": "2025-12-25T22:00:01.999584", "MEAN_MOTION": 15.5889515, "ECCENTRICITY": 0.00016106, "INCLINATION": 53.1595, "RA_OF_ASC_NODE": 8.2219, "ARG_OF_PERICENTER": 91.0817, "MEAN_ANOMALY": 127.3647, "EPHEMERIS_TYPE": 0, "CLASSIFICATION_TYPE": "U", "NORAD_CAT_ID": 66878, "ELEMENT_SET_NO": 999, "REV_AT_EPOCH": 454, "BSTAR": -0.027839851, "MEAN_MOTION_DOT": -0.01937342, "MEAN_MOTION_DDOT": 0}, "tle": {"line1": "1 66878U 25283A   25359.91668981 -.01937342  00000+0 -27840-1 0  9999", "line2": "2 66878  53.1595   8.2219 0001610  91.0817 127.3647 15.58895150  4541"}}, "geometry": {"type": "Point", "coordinates": [-6.956028164463515, -17.68543633643186]}}]}